POLYITAN-1              
1 40042U 14033AJ  26190.04009571  .00013569  00000+0  41372-3 0  9998
2 40042  98.0943 218.3797 0008317  82.3047 277.9138 15.34063134656942
TIGRISAT                
1 40043U 14033AK  26190.14651385  .00001209  00000+0  14433-3 0  9992
2 40043  97.7856 339.6587 0049175   4.2911 355.8715 14.85238395648885
AEROCUBE 6A             
1 40045U 14033AM  26190.73142161  .00003408  00000+0  28750-3 0  9996
2 40045  97.7235 357.4445 0036915 299.7682  59.9870 14.98308817649991
AEROCUBE 6B             
1 40046U 14033AN  26190.71179853  .00003089  00000+0  25121-3 0  9997
2 40046  97.7206 357.2637 0037918 289.5091  70.2039 14.99767837650139
CANX-4                  
1 40055U 14034C   26190.71346684  .00000596  00000+0  83716-4 0  9991
2 40055  98.3093  66.8506 0011612 302.4173  57.5914 14.81305301647868
CANX-5                  
1 40056U 14034D   26190.10370604  .00000612  00000+0  85658-4 0  9990
2 40056  98.3096  66.2635 0011636 304.7707  55.2409 14.81321616638583
UKUBE-1                 
1 40074U 14037F   26190.77553352  .00005644  00000+0  31609-3 0  9995
2 40074  98.4244 196.4263 0003240  97.6551 262.5046 15.13896142651974
BRITE-PL2 (HEWELIUSZ)   
1 40119U 14049B   26190.26496503  .00001666  00000+0  15885-3 0  9994
2 40119  97.9114 302.4379 0014777  41.3663 318.8673 14.94675108644741
AEROCUBE 5C             
1 40965U 15058B   26190.02939822  .00001855  00000+0  17147-3 0  9997
2 40965  64.7653 194.6344 0131922  54.7863 306.5516 14.91551276368913
AEROCUBE 7              
1 40966U 15058C   26189.69562997  .00003209  00000+0  26071-3 0  9995
2 40966  64.7606 177.4388 0121597  53.2521 307.9684 14.95872823369179
FOX-1A (AO-85)          
1 40967U 15058D   26190.01700611  .00001641  00000+0  15542-3 0  9990
2 40967  64.7733 211.1378 0131891  48.1465 313.0815 14.91065127116827
SINOD-D 1               
1 40968U 15058E   26190.00525422  .00002945  00000+0  23989-3 0  9997
2 40968  64.7734 190.5790 0120564  44.5324 316.5402 14.96049923119921
SNAP-3 ALICE            
1 40970U 15058G   26190.24932030  .00130302  00000+0  12310-2 0  9997
2 40970  64.7497  27.3461 0023678 352.7154   7.3647 15.66012908120339
LMRST-SAT               
1 40971U 15058H   26190.04500116  .00001593  00000+0  15228-3 0  9993
2 40971  64.7739 207.4304 0133440  50.1496 311.1265 14.90681027116813
SNAP-3 EDDIE            
1 40972U 15058J   26189.90288518  .00115112  00000+0  10375-2 0  9996
2 40972  64.7405  19.1153 0024533 355.9394   4.1552 15.67200263122425
PROPCUBE 3              
1 40973U 15058K   26189.02291486  .00002298  00000+0  19686-3 0  9993
2 40973  64.7669 187.4306 0125233  51.7463 309.4841 14.94377515117918
BISONSAT                
1 40974U 15058L   26190.19115101  .00011575  00000+0  54715-3 0  9993
2 40974  64.7579 102.4695 0081437  38.4367 322.2520 15.16819361118956
SNAP-3 JIMI             
1 40975U 15058M   26189.95562128  .00004667  00000+0  32125-3 0  9996
2 40975  64.7634 150.8853 0107301  46.7367 314.2642 15.02549103117496
PROPCUBE 1 (FLORA)      
1 40976U 15058N   26190.08714770  .00001266  00000+0  12909-3 0  9995
2 40976  64.7731 227.3576 0132046  52.4182 308.8834 14.89310116119522
SINOD-D 3               
1 40977U 15058P   26189.32564808  .00002066  00000+0  18159-3 0  9998
2 40977  64.7708 209.8037 0120551  49.7948 311.3641 14.94138888117917
RAVAN                   
1 41849U 16067B   26190.61910389  .00045047  00000+0  62255-3 0  9993
2 41849  97.9855  82.8186 0001700 255.2675 104.8390 15.57028665531182
CELTEE 1                
1 41850U 16067C   26189.60514709  .00003332  00000+0  15880-3 0  9991
2 41850  98.0651  57.6329 0002097 118.4249 241.7196 15.19898372529131
OPTICUBE 04             
1 41851U 16067D   26190.01764122  .00001661  00000+0  10704-3 0  9998
2 41851  98.0684  43.4393 0016570  47.6553 312.6075 15.09754405528460
AEROCUBE 8D             
1 41852U 16067E   26189.61813817  .00004874  00000+0  20032-3 0  9993
2 41852  98.0658  61.4206 0004878  72.9126 287.2644 15.24707647529339
AEROCUBE 8C             
1 41853U 16067F   26190.09890226  .00004981  00000+0  20307-3 0  9991
2 41853  98.0532  59.1380 0004935   4.0860 356.0415 15.24966793529401
CORVUS BC2              
1 42846U 17042X   26190.71355477  .00002155  00000+0  14986-3 0  9998
2 42846  97.4091 351.1919 0013895  40.9384 319.2885 15.06439542490456
CORVUS BC1              
1 42847U 17042Y   26189.90867860  .00001898  00000+0  13199-3 0  9990
2 42847  97.4123 351.2462 0012254  22.1714 338.0041 15.06600810490365
MAKERSAT 0              
1 43016U 17073D   26189.72816002  .00013683  00000+0  36375-3 0  9991
2 43016  97.4597  72.4218 0105066 195.3224 164.4830 15.32839065469765
SIRION PATHFINDER-2     
1 43759U 18099B   26189.65263305  .00002925  00000+0  16123-3 0  9994
2 43759  97.4246 238.2007 0007811 215.4457 144.6257 15.14744359415876
CORVUS BC4              
1 43767U 18099K   26189.68843160  .00002438  00000+0  14299-3 0  9990
2 43767  97.4057 232.0397 0006519 289.4276  70.6250 15.12668563415650
